TDRS 3                  
1 19548U 88091B   24289.04136350 -.00000299  00000+0  00000+0 0  9999
2 19548  13.0720 345.0810 0036915 335.1963  29.6816  1.00279243119277
HST                     
1 20580U 90037B   24289.96080940  .00012648  00000+0  55716-3 0  9992
2 20580  28.4685 254.6337 0002594 274.1177  85.9119 15.20267027695419
TDRS 5                  
1 21639U 91054B   24289.34517747 -.00000301  00000+0  00000+0 0  9996
2 21639  14.1479 358.2228 0006584 232.5065 215.6061  1.00276397121601
TDRS 6                  
1 22314U 93003B   24290.08591008 -.00000296  00000+0  00000+0 0  9991
2 22314  14.1679   1.5229 0011300 183.9369 184.5785  1.00266556116271
TDRS 7                  
1 23613U 95035B   24290.14054726 -.00000205  00000+0  00000+0 0  9999
2 23613  13.6323 352.3783 0023033  77.6954  90.6345  1.00274908107045
ISS (ZARYA)             
1 25544U 98067A   24290.57041525  .00022875  00000+0  40796-3 0  9998
2 25544  51.6389  74.1673 0009485  76.0966 333.3444 15.49936866477371
TERRA                   
1 25994U 99068A   24290.62381870  .00002054  00000+0  43622-3 0  9993
2 25994  98.0346 350.4822 0002270  18.3081 150.2077 14.60110416320884
TDRS 8                  
1 26388U 00034A   24289.57790906  .00000099  00000+0  00000+0 0  9998
2 26388  11.7205  36.2427 0006097 198.2069 190.5992  1.00268118 89061
TIMED                   
1 26998U 01055B   24290.22586305  .00004644  00000+0  45723-3 0  9994
2 26998  74.0736  18.8450 0001864 333.0856  27.0230 14.92371173240015
AQUA                    
1 27424U 02022A   24290.63903861  .00003772  00000+0  79418-3 0  9998
2 27424  98.3437 240.5917 0002454  80.7665 357.9959 14.60086465194438
TDRS 10                 
1 27566U 02055A   24290.20932064  .00000090  00000+0  00000+0 0  9998
2 27566   9.7872  44.4903 0002407 296.0876 308.9720  1.00277501 80118
SORCE                   
1 27651U 03004A   24289.92860796  .00007533  00000+0  65244-3 0  9991
2 27651  39.9913 122.7693 0021231   5.6890 354.4140 14.96996160180331
AURA                    
1 28376U 04026A   24290.14821606  .00003522  00000+0  75411-3 0  9995
2 28376  98.2621 234.2511 0002495  70.3183 289.8285 14.59345899 77357
SWIFT                   
1 28485U 04047A   24289.96241223  .00027070  00000+0  10412-2 0  9991
2 28485  20.5568  33.5296 0007979  52.1113 308.0045 15.24501457 92744
THEMIS A                
1 30580U 07004A   24289.00898502 -.00000436  00000+0  00000+0 0  9996
2 30580   8.6324 255.7749 8394334 342.5138   0.3242  0.87836520 35918
THEMIS D                
1 30797U 07004D   24289.72238181 -.00000357  00000+0  00000+0 0  9998
2 30797   4.1317 255.7659 8384816 346.6636 214.6474  0.87837564 35717
THEMIS E                
1 30798U 07004E   24289.65565765 -.00000381  00000+0  00000+0 0  9999
2 30798   6.2266 276.7386 8373119 326.7685 207.5183  0.87835008 60550
FGRST (GLAST)           
1 33053U 08029A   24289.77115041  .00006572  00000+0  29542-3 0  9998
2 33053  25.5806 100.3188 0010084   5.5718 354.4930 15.18377073902913
TDRS 11                 
1 39070U 13004A   24290.20746781  .00000078  00000+0  00000+0 0  9992
2 39070   2.8174  15.8118 0003056  68.4495 201.2455  1.00271964 42877
TDRS 12                 
1 39504U 14004A   24290.08035571 -.00000270  00000+0  00000+0 0  9994
2 39504   3.5755   6.2848 0005837 221.8159 144.9832  1.00275736 39348
GPM-CORE                
1 39574U 14009C   24289.87095984  .00030336  00000+0  63876-3 0  9994
2 39574  64.9833 188.9645 0007148 265.4708  94.5617 15.45135604603719
MMS 1                   
1 40482U 15011A   24290.66667824 -.00000776  00000+0  00000+0 0  9997
2 40482  55.1428   3.5812 8977128 152.7572 322.2077  0.28427016 15723
MMS 2                   
1 40483U 15011B   24290.66667824 -.00000776  00000+0  00000+0 0  9998
2 40483  55.1404   3.5830 8976802 152.7564 320.9712  0.28428964 15709
MMS 3                   
1 40484U 15011C   24290.66667824 -.00000776  00000+0  00000+0 0  9999
2 40484  55.1424   3.5813 8977142 152.7533 321.1391  0.28413962 15705
MMS 4                   
1 40485U 15011D   24290.66667824 -.00000775  00000+0  00000+0 0  9999
2 40485  55.1211   3.5915 8974104 152.7559 311.2313  0.28454866 15708
TDRS 13                 
1 42915U 17047A   24290.08762884 -.00000106  00000+0  00000+0 0  9996
2 42915   3.5583 347.2937 0013829 131.0835 286.8900  1.00271463 26270
NOAA 20 (JPSS-1)        
1 43013U 17073A   24290.57471786  .00000430  00000+0  22466-3 0  9990
2 43013  98.7148 226.4933 0000896 158.7043 201.4170 14.19540134358126
